{
  "constellation": "oneweb",
  "timestamp": "2025-07-21T05:06:13.717346+00:00",
  "satellite_count": 651,
  "data": [
    {
      "satellite_name": "ONEWEB-0584",
      "catalog_number": 54651,
      "epoch_year": 2025,
      "epoch_day": 201.83876855,
      "first_derivative": -1.12e-06,
      "second_derivative": 0.0,
      "drag_term": -0.00030263,
      "inclination": 87.9276,
      "right_ascension": 310.0906,
      "eccentricity": 0.0001843,
      "argument_of_perigee": 112.7226,
      "mean_anomaly": 247.4103,
      "mean_motion": 13.21825272,
      "revolution_number": 12821,
      "line1": "1 54651U 22166K   25201.83876855 -.00000112  00000+0 -30263-3 0  9990",
      "line2": "2 54651  87.9276 310.0906 0001843 112.7226 247.4103 13.21825272128216",
      "last_updated": "2025-07-21T05:06:13.714766+00:00",
      "constellation": "oneweb"
    },
    {
      "satellite_name": "ONEWEB-0585",
      "catalog_number": 54652,
      "epoch_year": 2025,
      "epoch_day": 201.56121706,
      "first_derivative": 9.5e-07,
      "second_derivative": 0.0,
      "drag_term": 0.0,
      "inclination": 87.9273,
      "right_ascension": 310.132,
      "eccentricity": 0.0001912,
      "argument_of_perigee": 96.0787,
      "mean_anomaly": 264.0565,
      "mean_motion": 13.21827958,
      "revolution_number": 12771,
      "line1": "1 54652U 22166L   25201.56121706  .00000095  00000+0  19758-3 0  9993",
      "line2": "2 54652  87.9273 310.1320 0001912  96.0787 264.0565 13.21827958127712",
      "last_updated": "2025-07-21T05:06:13.714768+00:00",
      "constellation": "oneweb"
    },
    {
      "satellite_name": "ONEWEB-0586",
      "catalog_number": 54653,
      "epoch_year": 2025,
      "epoch_day": 201.57383091,
      "first_derivative": -7e-08,
      "second_derivative": 0.0,
      "drag_term": -4.9034000000000005e-05,
      "inclination": 87.9276,
      "right_ascension": 310.1528,
      "eccentricity": 0.0002015,
      "argument_of_perigee": 105.4928,
      "mean_anomaly": 254.6429,
      "mean_motion": 13.21825182,
      "revolution_number": 12771,
      "line1": "1 54653U 22166M   25201.57383091 -.00000007  00000+0 -49034-4 0  9998",
      "line2": "2 54653  87.9276 310.1528 0002015 105.4928 254.6429 13.21825182127714",
      "last_updated": "2025-07-21T05:06:13.714770+00:00",
      "constellation": "oneweb"
    },
    {
      "satellite_name": "ONEWEB-0587",
      "catalog_number": 54654,
      "epoch_year": 2025,
      "epoch_day": 201.5832922,
      "first_derivative": 1.5e-07,
      "second_derivative": 0.0,
      "drag_term": 0.0,
      "inclination": 87.9275,
      "right_ascension": 310.0992,
      "eccentricity": 0.0001927,
      "argument_of_perigee": 93.7803,
      "mean_anomaly": 266.3551,
      "mean_motion": 13.21827099,
      "revolution_number": 12833,
      "line1": "1 54654U 22166N   25201.58329220  .00000015  00000+0  46928-5 0  9991",
      "line2": "2 54654  87.9275 310.0992 0001927  93.7803 266.3551 13.21827099128334",
      "last_updated": "2025-07-21T05:06:13.714772+00:00",
      "constellation": "oneweb"
    },
    {
      "satellite_name": "ONEWEB-0589",
      "catalog_number": 54655,
      "epoch_year": 2025,
      "epoch_day": 201.57066741,
      "first_derivative": 5.9e-07,
      "second_derivative": 0.0,
      "drag_term": 0.0,
      "inclination": 87.9271,
      "right_ascension": 310.1459,
      "eccentricity": 0.0002001,
      "argument_of_perigee": 125.1333,
      "mean_anomaly": 234.9989,
      "mean_motion": 13.2182954,
      "revolution_number": 12773,
      "line1": "1 54655U 22166P   25201.57066741  .00000059  00000+0  11219-3 0  9998",
      "line2": "2 54655  87.9271 310.1459 0002001 125.1333 234.9989 13.21829540127734",
      "last_updated": "2025-07-21T05:06:13.714774+00:00",
      "constellation": "oneweb"
    },
    {
      "satellite_name": "ONEWEB-0590",
      "catalog_number": 54656,
      "epoch_year": 2025,
      "epoch_day": 201.59418637,
      "first_derivative": -8.4e-07,
      "second_derivative": 0.0,
      "drag_term": -0.00023558999999999999,
      "inclination": 87.9272,
      "right_ascension": 310.1194,
      "eccentricity": 0.0001537,
      "argument_of_perigee": 98.7527,
      "mean_anomaly": 261.3781,
      "mean_motion": 13.21826557,
      "revolution_number": 12818,
      "line1": "1 54656U 22166Q   25201.59418637 -.00000084  00000+0 -23559-3 0  9996",
      "line2": "2 54656  87.9272 310.1194 0001537  98.7527 261.3781 13.21826557128184",
      "last_updated": "2025-07-21T05:06:13.714776+00:00",
      "constellation": "oneweb"
    },
    {
      "satellite_name": "ONEWEB-0591",
      "catalog_number": 54657,
      "epoch_year": 2025,
      "epoch_day": 201.53124481,
      "first_derivative": 4.2e-07,
      "second_derivative": 0.0,
      "drag_term": 0.0,
      "inclination": 87.9278,
      "right_ascension": 310.1549,
      "eccentricity": 0.0001899,
      "argument_of_perigee": 104.0814,
      "mean_anomaly": 256.0531,
      "mean_motion": 13.21825336,
      "revolution_number": 12774,
      "line1": "1 54657U 22166R   25201.53124481  .00000042  00000+0  70229-4 0  9991",
      "line2": "2 54657  87.9278 310.1549 0001899 104.0814 256.0531 13.21825336127745",
      "last_updated": "2025-07-21T05:06:13.714778+00:00",
      "constellation": "oneweb"
    },
    {
      "satellite_name": "ONEWEB-0592",
      "catalog_number": 54658,
      "epoch_year": 2025,
      "epoch_day": 201.83718708,
      "first_derivative": -1.1e-06,
      "second_derivative": 0.0,
      "drag_term": -0.00029762,
      "inclination": 87.9278,
      "right_ascension": 310.0453,
      "eccentricity": 0.0001871,
      "argument_of_perigee": 103.8421,
      "mean_anomaly": 256.2921,
      "mean_motion": 13.2182501,
      "revolution_number": 12813,
      "line1": "1 54658U 22166S   25201.83718708 -.00000110  00000+0 -29762-3 0  9999",
      "line2": "2 54658  87.9278 310.0453 0001871 103.8421 256.2921 13.21825010128138",
      "last_updated": "2025-07-21T05:06:13.714780+00:00",
      "constellation": "oneweb"
    },
    {
      "satellite_name": "ONEWEB-0593",
      "catalog_number": 54659,
      "epoch_year": 2025,
      "epoch_day": 201.86084557,
      "first_derivative": -2.8e-07,
      "second_derivative": 0.0,
      "drag_term": -9.998300000000001e-05,
      "inclination": 87.9272,
      "right_ascension": 310.0794,
      "eccentricity": 0.0001925,
      "argument_of_perigee": 106.1269,
      "mean_anomaly": 254.0077,
      "mean_motion": 13.21824767,
      "revolution_number": 12824,
      "line1": "1 54659U 22166T   25201.86084557 -.00000028  00000+0 -99983-4 0  9992",
      "line2": "2 54659  87.9272 310.0794 0001925 106.1269 254.0077 13.21824767128245",
      "last_updated": "2025-07-21T05:06:13.714782+00:00",
      "constellation": "oneweb"
    },
    {
      "satellite_name": "ONEWEB-0594",
      "catalog_number": 54660,
      "epoch_year": 2025,
      "epoch_day": 201.57697718,
      "first_derivative": 3.5e-07,
      "second_derivative": 0.0,
      "drag_term": 0.0,
      "inclination": 87.928,
      "right_ascension": 310.1501,
      "eccentricity": 0.0001995,
      "argument_of_perigee": 99.2359,
      "mean_anomaly": 260.9001,
      "mean_motion": 13.21825176,
      "revolution_number": 12821,
      "line1": "1 54660U 22166U   25201.57697718  .00000035  00000+0  54321-4 0  9994",
      "line2": "2 54660  87.9280 310.1501 0001995  99.2359 260.9001 13.21825176128217",
      "last_updated": "2025-07-21T05:06:13.714784+00:00",
      "constellation": "oneweb"
    },
    {
      "satellite_name": "ONEWEB-0595",
      "catalog_number": 54661,
      "epoch_year": 2025,
      "epoch_day": 201.85769014,
      "first_derivative": -7.1e-07,
      "second_derivative": 0.0,
      "drag_term": -0.00020455,
      "inclination": 87.9273,
      "right_ascension": 310.0715,
      "eccentricity": 0.0001926,
      "argument_of_perigee": 94.7829,
      "mean_anomaly": 265.3525,
      "mean_motion": 13.2182499,
      "revolution_number": 12823,
      "line1": "1 54661U 22166V   25201.85769014 -.00000071  00000+0 -20455-3 0  9997",
      "line2": "2 54661  87.9273 310.0715 0001926  94.7829 265.3525 13.21824990128237",
      "last_updated": "2025-07-21T05:06:13.714787+00:00",
      "constellation": "oneweb"
    },
    {
      "satellite_name": "ONEWEB-0596",
      "catalog_number": 54662,
      "epoch_year": 2025,
      "epoch_day": 201.83087593,
      "first_derivative": -1.56e-06,
      "second_derivative": 0.0,
      "drag_term": -0.0004089,
      "inclination": 87.9283,
      "right_ascension": 310.0907,
      "eccentricity": 0.0001895,
      "argument_of_perigee": 100.1863,
      "mean_anomaly": 259.9484,
      "mean_motion": 13.21824396,
      "revolution_number": 12823,
      "line1": "1 54662U 22166W   25201.83087593 -.00000156  00000+0 -40890-3 0  9990",
      "line2": "2 54662  87.9283 310.0907 0001895 100.1863 259.9484 13.21824396128230",
      "last_updated": "2025-07-21T05:06:13.714790+00:00",
      "constellation": "oneweb"
    },
    {
      "satellite_name": "ONEWEB-0597",
      "catalog_number": 54663,
      "epoch_year": 2025,
      "epoch_day": 201.58486121,
      "first_derivative": 2.3e-07,
      "second_derivative": 0.0,
      "drag_term": 0.0,
      "inclination": 87.928,
      "right_ascension": 310.1428,
      "eccentricity": 0.0001988,
      "argument_of_perigee": 105.2182,
      "mean_anomaly": 254.9172,
      "mean_motion": 13.21825509,
      "revolution_number": 12773,
      "line1": "1 54663U 22166X   25201.58486121  .00000023  00000+0  24286-4 0  9996",
      "line2": "2 54663  87.9280 310.1428 0001988 105.2182 254.9172 13.21825509127730",
      "last_updated": "2025-07-21T05:06:13.714792+00:00",
      "constellation": "oneweb"
    }
  ]
}